[{"OBJECT_NAME":"RANGE-A","OBJECT_ID":"2018-099R","EPOCH":"2026-03-09T16:56:29.908608","MEAN_MOTION":15.1245864,"ECCENTRICITY":0.00096737,"INCLINATION":97.4107,"RA_OF_ASC_NODE":114.1927,"ARG_OF_PERICENTER":340.4473,"MEAN_ANOMALY":19.6386,"EPHEMERIS_TYPE":0,"CLASSIFICATION_TYPE":"U","NORAD_CAT_ID":43773,"ELEMENT_SET_NO":999,"REV_AT_EPOCH":39745,"BSTAR":0.00032165687,"MEAN_MOTION_DOT":5.536e-5,"MEAN_MOTION_DDOT":0},{"OBJECT_NAME":"STARLINK-4751","OBJECT_ID":"2022-114H","EPOCH":"2026-03-09T21:59:58.479648","MEAN_MOTION":15.08834432,"ECCENTRICITY":0.00012477,"INCLINATION":53.2165,"RA_OF_ASC_NODE":303.2516,"ARG_OF_PERICENTER":103.5502,"MEAN_ANOMALY":256.563,"EPHEMERIS_TYPE":0,"CLASSIFICATION_TYPE":"U","NORAD_CAT_ID":53825,"ELEMENT_SET_NO":999,"REV_AT_EPOCH":19286,"BSTAR":-0.00015999485,"MEAN_MOTION_DOT":-2.833e-5,"MEAN_MOTION_DDOT":0}]
